USA 193 DEB             
1 32507U 06057H   08087.60456824  .24680558  93124-5  22467-1 0   819
2 32507  58.5921 259.5824 0194745  97.6655 269.7474 15.83716160  5116
USA 193 DEB             
1 32510U 06057L   08112.51151887  .00469628  68469-4  14236-2 0  1304
2 32510  58.5433 140.8983 0249301 114.6386 248.0959 15.56515398  9220
USA 193 DEB             
1 32512U 06057N   08113.22465718  .00506203  68192-4  17829-2 0  1053
2 32512  58.5484 145.5449 0333190 117.1953 246.3354 15.36687132  9207
USA 193 DEB             
1 32515U 06057R   08094.42962693  .06236433  10457-4  24621-2 0   914
2 32515  58.7003 210.3882 0063584  81.6894 288.3275 16.17893583  6447
USA 193 DEB             
1 32524U 06057AA  08113.23985636  .00278712  25240-4  10229-2 0  1395
2 32524  58.8042 158.0906 0370376 110.0919 253.8910 15.28167889  9036
USA 193 DEB             
1 32527U 06057AD  08106.22743965  .09467328  10953-4  10556-2 0  1071
2 32527  58.0938 149.0991 0016802 116.1297 248.0513 16.35956662  8472
USA 193 DEB             
1 32532U 06057AJ  08112.63517078  .02029201  68002-5  89859-2 0  1385
2 32532  58.4086 205.4053 0887189  75.2583 294.5322 14.10757561  7964
USA 193 DEB             
1 32542U 06057AU  08112.50991248  .00868601  92826-5  15347-2 0  1292
2 32542  58.8763 143.9460 0234103  79.2699 283.4824 15.67309284  9125
USA 193 DEB             
1 32543U 06057AV  08113.18987102  .00256447  22584-4  10112-2 0  1109
2 32543  58.6614 146.9517 0370690 116.9610 246.9801 15.27043608  9174
USA 193 DEB             
1 32578U 06057AZ  08113.17496874  .00912740  10777-4  21398-3 0  1012
2 32578  58.3865 107.0699 0012678 110.2112 250.0771 16.28947136  9475
USA 193 DEB             
1 32582U 06057BD  08099.65484312  .52824336  11216-4  10803-1 0   900
2 32582  58.6491 224.3778 0056894  51.2996 309.8016 16.25677627  6699
USA 193 DEB             
1 32583U 06057BE  08097.89713198  .45161721  10720-4  13224-1 0   882
2 32583  59.1517 239.4338 0074173  68.9155  36.6940 16.19398571  6306
USA 193 DEB             
1 32591U 06057BN  08103.18197626  .20556378  10209-4  83754-2 0   824
2 32591  59.5753 223.1457 0105506  79.0078 286.4209 16.10432754  6536
USA 193 DEB             
1 32593U 06057BQ  08113.19591297  .01022986  30344-3  28281-2 0  1154
2 32593  58.4676 144.8709 0273113 115.7937 247.1440 15.52942748  8505
USA 193 DEB             
1 32597U 06057BU  08100.47617394  .33980744  10647-4  96446-2 0   570
2 32597  58.6889 226.9211 0038704  82.4612 341.5840 16.24781421  5871
USA 193 DEB             
1 32601U 06057BY  08112.42693656  .00257577  21653-4  12063-2 0   992
2 32601  58.5251 152.0647 0409118 111.8114 252.7021 15.16148467  8072
USA 193 DEB             
1 32602U 06057BZ  08113.18364905  .00349363  40927-4  11745-2 0  1086
2 32602  57.1960 134.2098 0259790 136.1340 226.0514 15.52778949  8252
USA 193 DEB             
1 32604U 06057CB  08112.40349125  .00425930  52769-4  15216-2 0  1000
2 32604  58.4843 145.2699 0299816 115.2523 247.9893 15.43544035  8429
USA 193 DEB             
1 32605U 06057CC  08097.56066257  .10673266  11127-4  23050-2 0   838
2 32605  58.5905 193.3287 0055393  47.1681 341.7454 16.25382180  6320
USA 193 DEB             
1 32606U 06057CD  08099.58829116  .08609377  10469-4  34363-2 0   852
2 32606  58.5039 190.1960 0075491  87.2666 279.3913 16.15911222  6488
USA 193 DEB             
1 32608U 06057CF  08112.82656620  .00408970  10396-4  25692-3 0   825
2 32608  58.5249 113.3169 0047415  84.8446 275.8558 16.14504206  9382
USA 193 DEB             
1 32612U 06057CK  08100.37807182  .18465430  11273-4  34298-3 0   749
2 32612  58.3853 170.6648 0008735  69.0865 302.2922 16.46869306  7418
USA 193 DEB             
1 32626U 06057CZ  08113.20866691  .00433692  10629-4  17407-3 0   800
2 32626  58.3750 107.1468 0015518 145.5152 214.7039 16.22734922  8438
USA 193 DEB             
1 32642U 06057DR  08102.19752107  .11041657  10733-4  40973-2 0   582
2 32642  56.4972 174.7718 0054101 130.8602 235.9972 16.19862946  6823
USA 193 DEB             
1 32646U 06057DV  08112.62957299  .00198089  17983-4  63981-3 0   864
2 32646  57.4549 135.8215 0343449 113.4284 250.3317 15.35862519  8006
USA 193 DEB             
1 32650U 06057DZ  08112.20670508  .00116740  15692-4  16949-3 0   667
2 32650  58.2108 116.8353 0083948  95.8622 265.1945 15.98332312  8044
USA 193 DEB             
1 32651U 06057EA  08113.18313999  .00372718  98343-5  57832-3 0   989
2 32651  58.6219 124.3769 0123932  93.4728 268.1146 15.90659238  8829
USA 193 DEB             
1 32655U 06057EE  08100.55162750  .05068501  10641-4  30780-2 0   564
2 32655  57.9090 180.5830 0073260  71.3938 302.5073 16.11384535  6729
USA 193 DEB             
1 32657U 06057EG  08112.49362146  .00105838  11271-4  49393-3 0   700
2 32657  57.6790 138.6697 0361055 118.8352 244.9489 15.26736243  8442
USA 193 DEB             
1 32660U 06057EK  08112.44725703  .02764529  10339-4  23357-2 0  1000
2 32660  57.6620 129.0802 0105955 120.8769 240.3144 16.01913858  8531
USA 193 DEB             
1 32664U 06057EP  08096.74093500  .10173090  10119-4  91308-2 0   553
2 32664  58.9374 219.1389 0134308  66.4506 305.8157 15.96007271  6180
USA 193 DEB             
1 32668U 06057ET  08093.71859910  .07957152  11259-4  26435-3 0   580
2 32668  58.2631 195.7769 0007985  51.8806 311.7434 16.44075136  5222
USA 193 DEB             
1 32671U 06057EW  08099.52446044  .07519459  11178-4  12481-2 0   634
2 32671  58.0182 178.6337 0051532  57.6762 312.7188 16.28414065  6709
USA 193 DEB             
1 32672U 06057EX  08094.55618103  .08559867  10812-4  45933-2 0   472
2 32672  56.4513 206.7155 0069712 121.8440 280.1333 16.13369545  5825
USA 193 DEB             
1 32675U 06057FA  08113.05230783  .00338697  10322-4  24568-3 0   685
2 32675  58.5016 113.1529 0063174  79.6977 281.1282 16.10707511  8201
USA 193 DEB             
1 32679U 06057FE  08108.15179849  .06393662  10545-4  24258-2 0   826
2 32679  57.9466 156.7719 0079846 106.3561 255.8405 16.15723370  7807
USA 193 DEB             
1 32681U 06057FG  08093.77522721  .05264938  10379-4  28692-2 0   532
2 32681  58.4271 213.8754 0084161  86.8823 280.5502 16.10970411  5696
USA 193 DEB             
1 32685U 06057FL  08113.13688991  .00402073  99614-5  74802-3 0   793
2 32685  57.6320 121.2574 0153758 147.5815 213.4342 15.82595616  8758
USA 193 DEB             
1 32689U 06057FN  08090.46978562  .02010353  10668-4  36900-3 0   351
2 32689  58.8567 213.6788 0015229  53.1604 307.9949 16.31359534  4243
USA 193 DEB             
1 32695U 06057FU  08112.35848677  .12753883  99500-5  83737-2 0   551
2 32695  58.8562 172.4766 0117569  92.8724 293.6092 16.02902900  8025
USA 193 DEB             
1 32696U 06057FV  08096.68551248  .58780314  11866-4  11037-1 0   453
2 32696  57.4985 227.8999 0069165  42.5632  29.3379 16.24439449  5623
USA 193 DEB             
1 32698U 06057FX  08107.60066474  .08492716  90268-5  92685-2 0   782
2 32698  58.0166 213.4056 0410841  84.1612 285.2797 15.34171183  6940
